ORBCOMM FM109           
1 40086U 14040A   23223.97779568  .00000810  00000+0  22031-3 0  9996
2 40086  47.0053 318.9214 0001261 131.0554 229.0439 14.55932458482724
ORBCOMM FM107           
1 40087U 14040B   23224.42288210  .00001021  00000+0  26833-3 0  9996
2 40087  47.0067 317.7403 0000674  20.7807 339.3105 14.55826396482783
ORBCOMM FM37 [-]        
1 33064U 08031E   23224.61072167  .00001450  00000+0  24376-3 0  9995
2 33064  48.4420 297.3113 0005989   3.1286 108.2220 14.74916931814640
ORBCOMM FM40 [-]        
1 33065U 08031F   23224.68922883  .00001803  00000+0  28926-3 0  9999
2 33065  48.4432 288.5880 0007284  11.5398 129.7709 14.75904115814781
VESSELSAT 1 [-]         
1 37840U 11058C   23225.10167450  .00000382  00000+0  64086-4 0  9995
2 37840  19.9597 211.7106 0013624 334.2903  25.6823 14.11050487611209
ORBCOMM FM106 [-]       
1 40088U 14040C   23224.06328711  .00001069  00000+0  22659-3 0  9992
2 40088  47.0604 192.2937 0017895 180.3848 179.7031 14.65882185484527
ORBCOMM FM111 [-]       
1 40089U 14040D   23224.76885016  .00001650  00000+0  24221-3 0  9999
2 40089  47.0046 121.0552 0033901 219.6153 140.2263 14.79769686490142
ORBCOMM FM104 [-]       
1 40090U 14040E   23224.80914178  .00000661  00000+0  19283-3 0  9991
2 40090  47.0074 341.8724 0016915   5.2513 354.8545 14.54402868482486
